ATLAS CENTAUR 2         
1 00694U 63047A   25307.97000280  .00004034  00000+0  48839-3 0  9997
2 00694  30.3515 177.9554 0550212  52.7564 312.1951 14.11375583113847
THOR AGENA D R/B        
1 00733U 64002A   25308.48441693  .00000309  00000+0  12769-3 0  9991
2 00733  99.1224 310.0328 0031918 262.9284  96.8269 14.33925769220355
SL-3 R/B                
1 00877U 64053B   25308.51983372  .00000367  00000+0  96066-4 0  9992
2 00877  65.0776 338.1618 0070222 333.3673  26.3826 14.61212938248509
SL-8 R/B                
1 02802U 67045B   25308.17479414  .00000417  00000+0  12318-3 0  9998
2 02802  74.0112 222.4693 0065605 260.2153  99.1592 14.45491291 70886
SL-8 R/B                
1 03230U 68040B   25308.61681245  .00004224  00000+0  32223-3 0  9993
2 03230  74.0322 209.0413 0023385  61.9965 298.3585 15.02143609 71227
OAO 2                   
1 03597U 68110A   25308.15264540  .00000317  00000+0  90772-4 0  9994
2 03597  34.9932 246.0751 0006221 269.6286  90.3692 14.47207147   906
ISIS 1                  
1 03669U 69009A   25308.56030215  .00000200  00000+0  14058-3 0  9990
2 03669  88.4531 168.9694 1707810 341.8418  12.8143 11.30332483334390
SERT 2                  
1 04327U 70009A   25308.45158384 -.00000003  00000+0  52332-4 0  9990
2 04327  99.2582 253.4999 0005512 118.6583 350.0730 13.58710607762886
SL-3 R/B                
1 05118U 71028B   25308.66298113  .00028629  00000+0  47383-3 0  9991
2 05118  81.2418 205.2899 0022771  19.0071 341.2021 15.51733574969225
ASTEX 1                 
1 05560U 71089A   25308.48933991  .00000685  00000+0  17490-3 0  9997
2 05560  92.7118 111.2503 0016990 141.2242 219.0187 14.50567282844150
SL-8 R/B                
1 05730U 71119B   25308.42113173  .00005867  00000+0  31338-3 0  9990
2 05730  73.8895  49.3349 0561348  41.4297 322.8028 14.34810965637500
OAO 3 (COPERNICUS)      
1 06153U 72065A   25308.67100977  .00000468  00000+0  10065-3 0  9992
2 06153  35.0061 289.5210 0007103 221.5260 304.9688 14.59854167827913
